[{"OBJECT_NAME":"STARLINK-32128","OBJECT_ID":"2024-131T","EPOCH":"2026-03-09T23:11:15.644256","MEAN_MOTION":15.30192661,"ECCENTRICITY":0.00014539,"INCLINATION":53.1612,"RA_OF_ASC_NODE":50.9539,"ARG_OF_PERICENTER":89.2781,"MEAN_ANOMALY":270.8386,"EPHEMERIS_TYPE":0,"CLASSIFICATION_TYPE":"U","NORAD_CAT_ID":60272,"ELEMENT_SET_NO":999,"REV_AT_EPOCH":9176,"BSTAR":5.4115e-5,"MEAN_MOTION_DOT":1.243e-5,"MEAN_MOTION_DDOT":0},{"OBJECT_NAME":"GEOSCAN 2 (RS92S2)","OBJECT_ID":"2025-155Q","EPOCH":"2026-03-09T23:01:48.939744","MEAN_MOTION":15.28709337,"ECCENTRICITY":0.00085277,"INCLINATION":97.4463,"RA_OF_ASC_NODE":37.5259,"ARG_OF_PERICENTER":140.9505,"MEAN_ANOMALY":219.2352,"EPHEMERIS_TYPE":0,"CLASSIFICATION_TYPE":"U","NORAD_CAT_ID":64890,"ELEMENT_SET_NO":999,"REV_AT_EPOCH":6561,"BSTAR":0.00051551761,"MEAN_MOTION_DOT":0.00014341,"MEAN_MOTION_DDOT":0}]
